ORBCOMM FM37 [-]        
1 33064U 08031E   23238.43258883  .00001558  00000+0  25940-3 0  9998
2 33064  48.4405 232.1016 0005580  64.5444  56.7582 14.74960760816364
ORBCOMM FM40 [-]        
1 33065U 08031F   23238.43035358  .00001996  00000+0  31669-3 0  9990
2 33065  48.4428 223.6602 0006982  72.6215  58.6792 14.75956971816374
VESSELSAT 1 [-]         
1 37840U 11058C   23239.03278137  .00000379  00000+0  62466-4 0  9993
2 37840  19.9613 127.4520 0013889 126.7121 233.4560 14.11054013613174
ORBCOMM FM109 [+]       
1 40086U 14040A   23239.34988933  .00000736  00000+0  20391-3 0  9996
2 40086  47.0029 246.5835 0001792 200.9383 159.1428 14.55877699484961
ORBCOMM FM107 [+]       
1 40087U 14040B   23239.31539522  .00000708  00000+0  19750-3 0  9996
2 40087  47.0047 247.6706 0000596 161.5141 198.5765 14.55852001484956
ORBCOMM FM106 [-]       
1 40088U 14040C   23238.71715816  .00001014  00000+0  21639-3 0  9992
2 40088  47.0614 122.3045 0018649 246.4433 113.4498 14.65919860486462
ORBCOMM FM111 [-]       
1 40089U 14040D   23238.87981444  .00001823  00000+0  26438-3 0  9992
2 40089  47.0065  52.0852 0034226 285.0078  74.7029 14.79826556492236
ORBCOMM FM104 [-]       
1 40090U 14040E   23239.37281935  .00000513  00000+0  15823-3 0  9999
2 40090  47.0052 273.5075 0016266  72.9389 287.3275 14.54424120484604
